STARLINK-37775          
1 69348U 26122V   26166.91668981  .00216682  00000+0  11072-2 0  9999
2 69348  97.2840 196.3458 0001495 100.5326 148.8076 15.80753863  3153
STARLINK-37777          
1 69349U 26122W   26166.91668981  .00132846  00000+0  68611-3 0  9991
2 69349  97.2838 196.3464 0001012  61.7905 188.2351 15.80741611  3156
STARLINK-37779          
1 69350U 26122X   26166.91668981  .00076364  00000+0  39728-3 0  9992
2 69350  97.2838 196.3503 0000730  58.8381 198.2567 15.80741958  3157
STARLINK-37549          
1 69351U 26122Y   26166.91668981 -.00325284  00000+0 -17457-2 0  9997
2 69351  97.2840 196.3427 0001390 101.9872 139.3587 15.81010913  3153
STARLINK-37778          
1 69352U 26122Z   26166.91668981  .00025354  00000+0  13280-3 0  9992
2 69352  97.2836 196.3521 0001498  85.3532 178.9886 15.80802919  3156
STARLINK-37651          
1 69353U 26123A   26166.91668981 -.00044079  00000+0 -22071-3 0  9999
2 69353  53.1587 248.1752 0000968  89.3804 321.7782 15.80893564  2945
STARLINK-37652          
1 69354U 26123B   26166.91668981 -.00003634  00000+0 -14881-4 0  9993
2 69354  53.1585 248.1888 0000920  86.1934 318.4788 15.80870878  2943
STARLINK-37593          
1 69355U 26123C   26166.91668981 -.00043616  00000+0 -21842-3 0  9992
2 69355  53.1584 248.1779 0001100 104.0507 305.5762 15.80886060  2993
STARLINK-37597          
1 69356U 26123D   26166.91668981  .00008729  00000+0  47734-4 0  9996
2 69356  53.1586 248.1587 0000947  78.6076 340.3007 15.80866765  2997
STARLINK-37598          
1 69357U 26123E   26166.91668981 -.00025785  00000+0 -12748-3 0  9996
2 69357  53.1587 248.1339 0000625  73.0397 357.8116 15.80876111  2992
STARLINK-37602          
1 69358U 26123F   26166.91668981 -.00216789  00000+0 -14395-2 0  9992
2 69358  53.1592 248.1485 0001024  75.2560 348.7404 15.75350736  2994
STARLINK-37600          
1 69359U 26123G   26166.91668981 -.01889745  00000+0 -13019-1 0  9993
2 69359  53.1595 248.1022 0000889  68.5888  17.8589 15.77116939  2996
STARLINK-37599          
1 69360U 26123H   26166.91668981 -.00001557  00000+0 -43494-5 0  9995
2 69360  53.1584 248.0122 0001217  74.0839  55.8290 15.80870038  2947
STARLINK-37039          
1 69361U 26123J   26166.91668981 -.00018285  00000+0 -89241-4 0  9991
2 69361  53.1592 248.0690 0001253  68.5067  33.3601 15.80884898  2944
STARLINK-37040          
1 69362U 26123K   26166.91668981 -.00018197  00000+0 -88852-4 0  9991
2 69362  53.1583 247.8418 0000766  86.0642 125.6784 15.80872970  2947
STARLINK-37582          
1 69363U 26123L   26166.91668981 -.01933329  00000+0 -11608-1 0  9998
2 69363  53.1588 248.0135 0001293  30.3001  98.6613 15.80196916  2948
STARLINK-37309          
1 69364U 26123M   26166.91668981 -.02083855  00000+0 -10818-1 0  9992
2 69364  53.1565 247.7274 0001012  86.3730 180.7036 15.83538160  3096
STARLINK-37436          
1 69365U 26123N   26166.91668981 -.02100609  00000+0 -10871-1 0  9999
2 69365  53.1569 247.6912 0001053  94.6127 189.9033 15.83631148  3094
STARLINK-37581          
1 69366U 26123P   26166.91668981 -.00435669  00000+0 -22874-2 0  9992
2 69366  53.1576 247.7298 0001624  73.2216 192.6037 15.81145240  2946
STARLINK-37683          
1 69367U 26123Q   26166.91668981 -.02165235  00000+0 -11646-1 0  9998
2 69367  53.1572 247.6849 0000892  77.8962 209.5025 15.82942063  2953
STARLINK-37687          
1 69368U 26123R   26166.91668981 -.02063229  00000+0 -10761-1 0  9996
2 69368  53.1568 247.6377 0000606  79.7196 230.5657 15.83411414  2955
STARLINK-37631          
1 69369U 26123S   26166.91668981 -.01562712  00000+0 -85107-2 0  9994
2 69369  53.1572 247.6436 0001003  74.0516 233.4554 15.82123496  3007
STARLINK-37673          
1 69370U 26123T   26166.91668981 -.00778083  00000+0 -42006-2 0  9996
2 69370  53.1571 247.6372 0001266  97.7957 212.6774 15.81406312  3002
STARLINK-37645          
1 69371U 26123U   26166.91668981  .00124073  00000+0  62564-3 0  9991
2 69371  53.1579 247.6585 0000800  20.4593 279.5735 15.80786475  3008
STARLINK-37688          
1 69372U 26123V   26166.91668981 -.00003642  00000+0 -14936-4 0  9993
2 69372  53.1579 247.6274 0001139  83.3919 231.3170 15.80852517  3000
STARLINK-37685          
1 69373U 26123W   26166.91668981 -.00031186  00000+0 -15493-3 0  9996
2 69373  53.1578 247.6216 0000681  81.1811 236.4016 15.80887976  3006
STARLINK-37632          
1 69374U 26123X   26166.91668981 -.00025288  00000+0 -12494-3 0  9991
2 69374  53.1577 247.6126 0000968  91.4818 230.3234 15.80875996  2952
STARLINK-37454          
1 69375U 26123Y   26166.91668981 -.00007222  00000+0 -33073-4 0  9997
2 69375  53.1577 247.5996 0000809  56.9021 271.1393 15.80878484  3093
STARLINK-37485          
1 69376U 26123Z   26166.91668981  .00038017  00000+0  19534-3 0  9997
2 69376  53.1578 247.5906 0000929  63.1133 269.1322 15.80868381  3097
STARLINK-37439          
1 69377U 26123AA  26166.91668981 -.00248319  00000+0 -12813-2 0  9990
2 69377  53.1568 247.5063 0001283  83.7742 288.9356 15.81034304  2950
