OBJECT_NAME,OBJECT_ID,EPOCH,MEAN_MOTION,ECCENTRICITY,INCLINATION,RA_OF_ASC_NODE,ARG_OF_PERICENTER,MEAN_ANOMALY,EPHEMERIS_TYPE,CLASSIFICATION_TYPE,NORAD_CAT_ID,ELEMENT_SET_NO,REV_AT_EPOCH,BSTAR,MEAN_MOTION_DOT,MEAN_MOTION_DDOT
STARLINK-37775,2026-122V,2026-06-15T22:00:01.999584,15.80753863,.00014952,97.2840,196.3458,100.5326,148.8076,0,U,69348,999,315,.11072293E-2,.216682E-2,0
STARLINK-37777,2026-122W,2026-06-15T22:00:01.999584,15.80741611,.0001012,97.2838,196.3464,61.7905,188.2351,0,U,69349,999,315,.68610824E-3,.132846E-2,0
STARLINK-37779,2026-122X,2026-06-15T22:00:01.999584,15.80741958,.00007306,97.2838,196.3503,58.8381,198.2567,0,U,69350,999,315,.39728163E-3,.76364E-3,0
STARLINK-37549,2026-122Y,2026-06-15T22:00:01.999584,15.81010913,.00013901,97.2840,196.3427,101.9872,139.3587,0,U,69351,999,315,-.17456955E-2,-.325284E-2,0
STARLINK-37778,2026-122Z,2026-06-15T22:00:01.999584,15.80802919,.00014985,97.2836,196.3521,85.3532,178.9886,0,U,69352,999,315,.13279646E-3,.25354E-3,0
STARLINK-37651,2026-123A,2026-06-15T22:00:01.999584,15.80893564,.0000968,53.1587,248.1752,89.3804,321.7782,0,U,69353,999,294,-.22071493E-3,-.44079E-3,0
STARLINK-37652,2026-123B,2026-06-15T22:00:01.999584,15.80870878,.00009207,53.1585,248.1888,86.1934,318.4788,0,U,69354,999,294,-.14880585E-4,-.3634E-4,0
STARLINK-37593,2026-123C,2026-06-15T22:00:01.999584,15.80886060,.00011008,53.1584,248.1779,104.0507,305.5762,0,U,69355,999,299,-.21841831E-3,-.43616E-3,0
STARLINK-37597,2026-123D,2026-06-15T22:00:01.999584,15.80866765,.00009478,53.1586,248.1587,78.6076,340.3007,0,U,69356,999,299,.47733991E-4,.8729E-4,0
STARLINK-37598,2026-123E,2026-06-15T22:00:01.999584,15.80876111,.00006257,53.1587,248.1339,73.0397,357.8116,0,U,69357,999,299,-.12747662E-3,-.25785E-3,0
STARLINK-37602,2026-123F,2026-06-15T22:00:01.999584,15.75350736,.00010243,53.1592,248.1485,75.2560,348.7404,0,U,69358,999,299,-.14394731E-2,-.216789E-2,0
STARLINK-37600,2026-123G,2026-06-15T22:00:01.999584,15.77116939,.00008899,53.1595,248.1022,68.5888,17.8589,0,U,69359,999,299,-.13019003E-1,-.1889745E-1,0
STARLINK-37599,2026-123H,2026-06-15T22:00:01.999584,15.80870038,.00012178,53.1584,248.0122,74.0839,55.8290,0,U,69360,999,294,-.4349439E-5,-.1557E-4,0
STARLINK-37039,2026-123J,2026-06-15T22:00:01.999584,15.80884898,.00012534,53.1592,248.0690,68.5067,33.3601,0,U,69361,999,294,-.89241467E-4,-.18285E-3,0
STARLINK-37040,2026-123K,2026-06-15T22:00:01.999584,15.80872970,.00007666,53.1583,247.8418,86.0642,125.6784,0,U,69362,999,294,-.88851825E-4,-.18197E-3,0
STARLINK-37582,2026-123L,2026-06-15T22:00:01.999584,15.80196916,.00012935,53.1588,248.0135,30.3001,98.6613,0,U,69363,999,294,-.11608156E-1,-.1933329E-1,0
STARLINK-37309,2026-123M,2026-06-15T22:00:01.999584,15.83538160,.00010126,53.1565,247.7274,86.3730,180.7036,0,U,69364,999,309,-.10817695E-1,-.2083855E-1,0
STARLINK-37436,2026-123N,2026-06-15T22:00:01.999584,15.83631148,.00010534,53.1569,247.6912,94.6127,189.9033,0,U,69365,999,309,-.10870662E-1,-.2100609E-1,0
STARLINK-37581,2026-123P,2026-06-15T22:00:01.999584,15.81145240,.00016244,53.1576,247.7298,73.2216,192.6037,0,U,69366,999,294,-.2287396E-2,-.435669E-2,0
STARLINK-37683,2026-123Q,2026-06-15T22:00:01.999584,15.82942063,.00008925,53.1572,247.6849,77.8962,209.5025,0,U,69367,999,295,-.11645947E-1,-.2165235E-1,0
STARLINK-37687,2026-123R,2026-06-15T22:00:01.999584,15.83411414,.00006064,53.1568,247.6377,79.7196,230.5657,0,U,69368,999,295,-.10760626E-1,-.2063229E-1,0
STARLINK-37631,2026-123S,2026-06-15T22:00:01.999584,15.82123496,.00010036,53.1572,247.6436,74.0516,233.4554,0,U,69369,999,300,-.85106545E-2,-.1562712E-1,0
STARLINK-37673,2026-123T,2026-06-15T22:00:01.999584,15.81406312,.00012665,53.1571,247.6372,97.7957,212.6774,0,U,69370,999,300,-.42005576E-2,-.778083E-2,0
STARLINK-37645,2026-123U,2026-06-15T22:00:01.999584,15.80786475,.00008001,53.1579,247.6585,20.4593,279.5735,0,U,69371,999,300,.62563887E-3,.124073E-2,0
STARLINK-37688,2026-123V,2026-06-15T22:00:01.999584,15.80852517,.00011398,53.1579,247.6274,83.3919,231.3170,0,U,69372,999,300,-.14935586E-4,-.3642E-4,0
STARLINK-37685,2026-123W,2026-06-15T22:00:01.999584,15.80887976,.0000681,53.1578,247.6216,81.1811,236.4016,0,U,69373,999,300,-.15492894E-3,-.31186E-3,0
STARLINK-37632,2026-123X,2026-06-15T22:00:01.999584,15.80875996,.00009689,53.1577,247.6126,91.4818,230.3234,0,U,69374,999,295,-.12493715E-3,-.25288E-3,0
STARLINK-37454,2026-123Y,2026-06-15T22:00:01.999584,15.80878484,.00008098,53.1577,247.5996,56.9021,271.1393,0,U,69375,999,309,-.3307289E-4,-.7222E-4,0
STARLINK-37485,2026-123Z,2026-06-15T22:00:01.999584,15.80868381,.00009294,53.1578,247.5906,63.1133,269.1322,0,U,69376,999,309,.19534161E-3,.38017E-3,0
STARLINK-37439,2026-123AA,2026-06-15T22:00:01.999584,15.81034304,.00012836,53.1568,247.5063,83.7742,288.9356,0,U,69377,999,295,-.1281329E-2,-.248319E-2,0
